*******************************************************************************
Ephemeris / WWW_USER Mon Mar 24 06:44:59 2025 Pasadena, USA      / Horizons    
*******************************************************************************
Target body name: (2018 RB1)                      {source: JPL#5}
Center body name: Earth (399)                     {source: DE441}
Center-site name: Gemini South Obs., Cerro Pachon
*******************************************************************************
Start time      : A.D. 2018-Sep-03 22:37:00.0000 UT      
Stop  time      : A.D. 2018-Sep-04 10:46:00.0000 UT      
Step-size       : 1 minutes
*******************************************************************************
Target pole/equ : undefined
Target radii    : undefined                                                    
Center geodetic : 289.2634, -30.2406227, 2.71233  {E-lon(deg),Lat(deg),Alt(km)}
Center cylindric: 289.2634,5517.21435,-3194.81213 {E-lon(deg),Dxy(km),Dz(km)}
Center pole/equ : ITRF93                          {East-longitude positive}
Center radii    : 6378.137, 6378.137, 6356.752 km {Equator_a, b, pole_c}       
Target primary  : Sun
Vis. interferer : MOON (R_eq= 1737.400) km        {source: DE441}
Rel. light bend : Sun                             {source: DE441}
Rel. lght bnd GM: 1.3271E+11 km^3/s^2                                          
Small-body perts: Yes                             {source: SB441-N16}
Atmos refraction: NO (AIRLESS)
RA format       : HMS
Time format     : CAL 
Calendar mode   : Mixed Julian/Gregorian
RTS-only print  : NO       
EOP file        : eop.250321.p250617                                           
EOP coverage    : DATA-BASED 1962-JAN-20 TO 2025-MAR-21. PREDICTS-> 2025-JUN-16
Units conversion: 1 au= 149597870.700 km, c= 299792.458 km/s, 1 day= 86400.0 s 
Table cut-offs 1: Elevation (-90.0deg=NO ),Airmass (>38.000=NO), Daylight (YES)
Table cut-offs 2: Solar elongation (  0.0,180.0=NO ),Local Hour Angle( 0.0=NO )
Table cut-offs 3: RA/DEC angular rate (     0.0=NO )                           
*******************************************************************************
Initial IAU76/J2000 heliocentric ecliptic osculating elements (au, days, deg.):
  EPOCH=  2458368.5 ! 2018-Sep-07.00 (TDB)         Residual RMS= .299          
   EC= .2816093255492492   QR= .7991213126369837   TP= 2458438.7854507864      
   OM= 166.9631715555783   W=  267.8210074013559   IN= 5.127543488636634       
  Equivalent ICRF heliocentric cartesian coordinates (au, au/d):
   X= 9.883258176612897E-01  Y=-2.654573099408967E-01  Z=-1.095366816313374E-01
  VX= 1.112505236628486E-04 VY= 1.667631342697191E-02 VZ= 5.559084906068471E-03
Asteroid physical parameters (km, seconds, rotational period in hours):        
   GM= n.a.                RAD= n.a.               ROTPER= n.a.                
   H= 27.9                 G= .150                 B-V= n.a.                   
                           ALBEDO= n.a.            STYP= n.a.                  
*******************************************************************************
 Date__(UT)__HR:MN     R.A._________(ICRF)_________DEC
******************************************************
$$SOE
 2018-Sep-04 04:46     22 10 34.654850 +05 13 39.11687
 2018-Sep-04 04:47     22 10 34.423942 +05 13 36.82002
 2018-Sep-04 04:48     22 10 34.193048 +05 13 34.52234
 2018-Sep-04 04:49     22 10 33.962168 +05 13 32.22385
 2018-Sep-04 04:50     22 10 33.731305 +05 13 29.92455
 2018-Sep-04 04:51     22 10 33.500459 +05 13 27.62443
 2018-Sep-04 04:52     22 10 33.269631 +05 13 25.32349
 2018-Sep-04 04:53     22 10 33.038822 +05 13 23.02174
 2018-Sep-04 04:54     22 10 32.808035 +05 13 20.71917
 2018-Sep-04 04:55     22 10 32.577269 +05 13 18.41578
 2018-Sep-04 04:56     22 10 32.346527 +05 13 16.11158
 2018-Sep-04 04:57     22 10 32.115809 +05 13 13.80657
 2018-Sep-04 04:58     22 10 31.885117 +05 13 11.50074
 2018-Sep-04 04:59     22 10 31.654451 +05 13 09.19410
 2018-Sep-04 05:00     22 10 31.423813 +05 13 06.88664
 2018-Sep-04 05:01     22 10 31.193205 +05 13 04.57837
 2018-Sep-04 05:02     22 10 30.962626 +05 13 02.26929
 2018-Sep-04 05:03     22 10 30.732080 +05 12 59.95939
 2018-Sep-04 05:04     22 10 30.501566 +05 12 57.64868
 2018-Sep-04 05:05     22 10 30.271086 +05 12 55.33716
 2018-Sep-04 05:06     22 10 30.040641 +05 12 53.02483
 2018-Sep-04 05:07     22 10 29.810232 +05 12 50.71169
 2018-Sep-04 05:08     22 10 29.579860 +05 12 48.39773
 2018-Sep-04 05:09     22 10 29.349528 +05 12 46.08297
 2018-Sep-04 05:10     22 10 29.119235 +05 12 43.76739
 2018-Sep-04 05:11     22 10 28.888983 +05 12 41.45101
 2018-Sep-04 05:12     22 10 28.658773 +05 12 39.13382
 2018-Sep-04 05:13     22 10 28.428607 +05 12 36.81581
 2018-Sep-04 05:14     22 10 28.198485 +05 12 34.49700
 2018-Sep-04 05:15     22 10 27.968409 +05 12 32.17738
 2018-Sep-04 05:16     22 10 27.738380 +05 12 29.85696
 2018-Sep-04 05:17     22 10 27.508398 +05 12 27.53572
 2018-Sep-04 05:18     22 10 27.278466 +05 12 25.21368
 2018-Sep-04 05:19     22 10 27.048585 +05 12 22.89083
 2018-Sep-04 05:20     22 10 26.818755 +05 12 20.56718
 2018-Sep-04 05:21     22 10 26.588978 +05 12 18.24272
 2018-Sep-04 05:22     22 10 26.359254 +05 12 15.91746
 2018-Sep-04 05:23     22 10 26.129586 +05 12 13.59139
 2018-Sep-04 05:24     22 10 25.899974 +05 12 11.26452
 2018-Sep-04 05:25     22 10 25.670419 +05 12 08.93685
 2018-Sep-04 05:26     22 10 25.440923 +05 12 06.60837
 2018-Sep-04 05:27     22 10 25.211487 +05 12 04.27909
 2018-Sep-04 05:28     22 10 24.982112 +05 12 01.94900
 2018-Sep-04 05:29     22 10 24.752798 +05 11 59.61812
 2018-Sep-04 05:30     22 10 24.523548 +05 11 57.28644
 2018-Sep-04 05:31     22 10 24.294362 +05 11 54.95395
 2018-Sep-04 05:32     22 10 24.065242 +05 11 52.62067
 2018-Sep-04 05:33     22 10 23.836188 +05 11 50.28658
 2018-Sep-04 05:34     22 10 23.607202 +05 11 47.95170
 2018-Sep-04 05:35     22 10 23.378285 +05 11 45.61602
 2018-Sep-04 05:36     22 10 23.149438 +05 11 43.27954
 2018-Sep-04 05:37     22 10 22.920662 +05 11 40.94227
 2018-Sep-04 05:38     22 10 22.691959 +05 11 38.60420
 2018-Sep-04 05:39     22 10 22.463329 +05 11 36.26533
 2018-Sep-04 05:40     22 10 22.234774 +05 11 33.92567
 2018-Sep-04 05:41     22 10 22.006294 +05 11 31.58521
 2018-Sep-04 05:42     22 10 21.777892 +05 11 29.24396
 2018-Sep-04 05:43     22 10 21.549567 +05 11 26.90192
 2018-Sep-04 05:44     22 10 21.321322 +05 11 24.55908
 2018-Sep-04 05:45     22 10 21.093157 +05 11 22.21545
 2018-Sep-04 05:46     22 10 20.865073 +05 11 19.87103
 2018-Sep-04 05:47     22 10 20.637073 +05 11 17.52582
 2018-Sep-04 05:48     22 10 20.409155 +05 11 15.17982
 2018-Sep-04 05:49     22 10 20.181323 +05 11 12.83303
 2018-Sep-04 05:50     22 10 19.953576 +05 11 10.48545
 2018-Sep-04 05:51     22 10 19.725917 +05 11 08.13708
 2018-Sep-04 05:52     22 10 19.498345 +05 11 05.78793
 2018-Sep-04 05:53     22 10 19.270863 +05 11 03.43799
 2018-Sep-04 05:54     22 10 19.043471 +05 11 01.08726
 2018-Sep-04 05:55     22 10 18.816171 +05 10 58.73575
 2018-Sep-04 05:56     22 10 18.588963 +05 10 56.38345
 2018-Sep-04 05:57     22 10 18.361849 +05 10 54.03037
 2018-Sep-04 05:58     22 10 18.134830 +05 10 51.67651
 2018-Sep-04 05:59     22 10 17.907907 +05 10 49.32186
 2018-Sep-04 06:00     22 10 17.681080 +05 10 46.96643
 2018-Sep-04 06:01     22 10 17.454352 +05 10 44.61022
 2018-Sep-04 06:02     22 10 17.227723 +05 10 42.25323
 2018-Sep-04 06:03     22 10 17.001194 +05 10 39.89546
 2018-Sep-04 06:04     22 10 16.774767 +05 10 37.53691
 2018-Sep-04 06:05     22 10 16.548442 +05 10 35.17759
 2018-Sep-04 06:06     22 10 16.322220 +05 10 32.81748
 2018-Sep-04 06:07     22 10 16.096103 +05 10 30.45660
 2018-Sep-04 06:08     22 10 15.870092 +05 10 28.09495
 2018-Sep-04 06:09     22 10 15.644187 +05 10 25.73252
 2018-Sep-04 06:10     22 10 15.418391 +05 10 23.36931
 2018-Sep-04 06:11     22 10 15.192703 +05 10 21.00534
 2018-Sep-04 06:12     22 10 14.967125 +05 10 18.64059
 2018-Sep-04 06:13     22 10 14.741658 +05 10 16.27507
 2018-Sep-04 06:14     22 10 14.516304 +05 10 13.90877
 2018-Sep-04 06:15     22 10 14.291062 +05 10 11.54171
 2018-Sep-04 06:16     22 10 14.065935 +05 10 09.17388
 2018-Sep-04 06:17  m  22 10 13.840923 +05 10 06.80528
 2018-Sep-04 06:18  m  22 10 13.616027 +05 10 04.43591
 2018-Sep-04 06:19  m  22 10 13.391249 +05 10 02.06578
 2018-Sep-04 06:20  m  22 10 13.166589 +05 09 59.69488
 2018-Sep-04 06:21  m  22 10 12.942048 +05 09 57.32321
 2018-Sep-04 06:22  m  22 10 12.717628 +05 09 54.95078
 2018-Sep-04 06:23  m  22 10 12.493330 +05 09 52.57759
 2018-Sep-04 06:24  m  22 10 12.269154 +05 09 50.20364
 2018-Sep-04 06:25  m  22 10 12.045102 +05 09 47.82892
 2018-Sep-04 06:26  m  22 10 11.821174 +05 09 45.45344
 2018-Sep-04 06:27  m  22 10 11.597372 +05 09 43.07721
 2018-Sep-04 06:28  m  22 10 11.373697 +05 09 40.70021
 2018-Sep-04 06:29  m  22 10 11.150149 +05 09 38.32246
 2018-Sep-04 06:30  m  22 10 10.926731 +05 09 35.94395
 2018-Sep-04 06:31  m  22 10 10.703442 +05 09 33.56469
 2018-Sep-04 06:32  m  22 10 10.480283 +05 09 31.18467
 2018-Sep-04 06:33  m  22 10 10.257257 +05 09 28.80389
 2018-Sep-04 06:34  m  22 10 10.034363 +05 09 26.42236
 2018-Sep-04 06:35  m  22 10 09.811603 +05 09 24.04008
 2018-Sep-04 06:36  m  22 10 09.588978 +05 09 21.65705
 2018-Sep-04 06:37  m  22 10 09.366489 +05 09 19.27327
 2018-Sep-04 06:38  m  22 10 09.144136 +05 09 16.88874
 2018-Sep-04 06:39  m  22 10 08.921921 +05 09 14.50346
 2018-Sep-04 06:40  m  22 10 08.699845 +05 09 12.11743
 2018-Sep-04 06:41  m  22 10 08.477909 +05 09 09.73066
 2018-Sep-04 06:42  m  22 10 08.256114 +05 09 07.34314
 2018-Sep-04 06:43  m  22 10 08.034460 +05 09 04.95488
 2018-Sep-04 06:44  m  22 10 07.812949 +05 09 02.56587
 2018-Sep-04 06:45  m  22 10 07.591581 +05 09 00.17613
 2018-Sep-04 06:46  m  22 10 07.370358 +05 08 57.78564
 2018-Sep-04 06:47  m  22 10 07.149281 +05 08 55.39440
 2018-Sep-04 06:48  m  22 10 06.928350 +05 08 53.00243
